[{"OBJECT_NAME":"NIMIQ 2","OBJECT_ID":"2002-062A","EPOCH":"2026-04-04T22:32:09.948192","MEAN_MOTION":1.0027362,"ECCENTRICITY":0.00065959,"INCLINATION":9.2784,"RA_OF_ASC_NODE":57.6581,"ARG_OF_PERICENTER":318.5046,"MEAN_ANOMALY":45.9384,"EPHEMERIS_TYPE":0,"CLASSIFICATION_TYPE":"U","NORAD_CAT_ID":27632,"ELEMENT_SET_NO":999,"REV_AT_EPOCH":4345,"BSTAR":0,"MEAN_MOTION_DOT":-6.6e-7,"MEAN_MOTION_DDOT":0},{"OBJECT_NAME":"ANIK F2","OBJECT_ID":"2004-027A","EPOCH":"2026-04-05T03:39:38.229984","MEAN_MOTION":1.00271858,"ECCENTRICITY":0.00040738,"INCLINATION":3.0969,"RA_OF_ASC_NODE":80.3968,"ARG_OF_PERICENTER":322.3522,"MEAN_ANOMALY":94.5021,"EPHEMERIS_TYPE":0,"CLASSIFICATION_TYPE":"U","NORAD_CAT_ID":28378,"ELEMENT_SET_NO":999,"REV_AT_EPOCH":4053,"BSTAR":0,"MEAN_MOTION_DOT":-4.7e-7,"MEAN_MOTION_DDOT":0},{"OBJECT_NAME":"ANIK F1R","OBJECT_ID":"2005-036A","EPOCH":"2026-04-05T02:44:44.166048","MEAN_MOTION":1.00272728,"ECCENTRICITY":0.0003221,"INCLINATION":4.126,"RA_OF_ASC_NODE":77.4713,"ARG_OF_PERICENTER":313.9876,"MEAN_ANOMALY":95.8424,"EPHEMERIS_TYPE":0,"CLASSIFICATION_TYPE":"U","NORAD_CAT_ID":28868,"ELEMENT_SET_NO":999,"REV_AT_EPOCH":4572,"BSTAR":0,"MEAN_MOTION_DOT":-7.2e-7,"MEAN_MOTION_DDOT":0},{"OBJECT_NAME":"ANIK F3","OBJECT_ID":"2007-009A","EPOCH":"2026-04-05T02:55:38.595936","MEAN_MOTION":1.00271499,"ECCENTRICITY":0.00028494,"INCLINATION":1.0085,"RA_OF_ASC_NODE":84.6862,"ARG_OF_PERICENTER":287.3655,"MEAN_ANOMALY":106.574,"EPHEMERIS_TYPE":0,"CLASSIFICATION_TYPE":"U","NORAD_CAT_ID":31102,"ELEMENT_SET_NO":999,"REV_AT_EPOCH":4583,"BSTAR":0,"MEAN_MOTION_DOT":1.0e-8,"MEAN_MOTION_DDOT":0},{"OBJECT_NAME":"NIMIQ 4","OBJECT_ID":"2008-044A","EPOCH":"2026-04-05T04:11:38.812992","MEAN_MOTION":1.00272916,"ECCENTRICITY":0.00023449,"INCLINATION":0.02,"RA_OF_ASC_NODE":238.3949,"ARG_OF_PERICENTER":124.5444,"MEAN_ANOMALY":171.4459,"EPHEMERIS_TYPE":0,"CLASSIFICATION_TYPE":"U","NORAD_CAT_ID":33373,"ELEMENT_SET_NO":999,"REV_AT_EPOCH":6425,"BSTAR":0,"MEAN_MOTION_DOT":-2.19e-6,"MEAN_MOTION_DDOT":0},{"OBJECT_NAME":"TELSTAR 11N","OBJECT_ID":"2009-009A","EPOCH":"2026-04-05T05:43:18.611040","MEAN_MOTION":1.00268887,"ECCENTRICITY":0.00023147,"INCLINATION":0.0158,"RA_OF_ASC_NODE":195.4559,"ARG_OF_PERICENTER":175.7214,"MEAN_ANOMALY":230.6438,"EPHEMERIS_TYPE":0,"CLASSIFICATION_TYPE":"U","NORAD_CAT_ID":34111,"ELEMENT_SET_NO":999,"REV_AT_EPOCH":4551,"BSTAR":0,"MEAN_MOTION_DOT":0,"MEAN_MOTION_DDOT":0},{"OBJECT_NAME":"TERRESTAR-1","OBJECT_ID":"2009-035A","EPOCH":"2026-04-05T00:14:13.485984","MEAN_MOTION":1.0027328,"ECCENTRICITY":0.00028781,"INCLINATION":5.1244,"RA_OF_ASC_NODE":48.8034,"ARG_OF_PERICENTER":325.4775,"MEAN_ANOMALY":71.6127,"EPHEMERIS_TYPE":0,"CLASSIFICATION_TYPE":"U","NORAD_CAT_ID":35496,"ELEMENT_SET_NO":999,"REV_AT_EPOCH":6140,"BSTAR":0,"MEAN_MOTION_DOT":-5.4e-7,"MEAN_MOTION_DDOT":0},{"OBJECT_NAME":"NIMIQ 5","OBJECT_ID":"2009-050A","EPOCH":"2026-04-05T05:33:19.568736","MEAN_MOTION":1.00272282,"ECCENTRICITY":0.00029328,"INCLINATION":0.0464,"RA_OF_ASC_NODE":81.6849,"ARG_OF_PERICENTER":298.7118,"MEAN_ANOMALY":183.7693,"EPHEMERIS_TYPE":0,"CLASSIFICATION_TYPE":"U","NORAD_CAT_ID":35873,"ELEMENT_SET_NO":999,"REV_AT_EPOCH":6061,"BSTAR":0,"MEAN_MOTION_DOT":-2.56e-6,"MEAN_MOTION_DDOT":0},{"OBJECT_NAME":"SKYTERRA 1","OBJECT_ID":"2010-061A","EPOCH":"2026-04-04T22:34:24.733056","MEAN_MOTION":1.00272041,"ECCENTRICITY":0.00025312,"INCLINATION":4.9705,"RA_OF_ASC_NODE":50.888,"ARG_OF_PERICENTER":3.2527,"MEAN_ANOMALY":16.3868,"EPHEMERIS_TYPE":0,"CLASSIFICATION_TYPE":"U","NORAD_CAT_ID":37218,"ELEMENT_SET_NO":999,"REV_AT_EPOCH":5646,"BSTAR":0,"MEAN_MOTION_DOT":-1.16e-6,"MEAN_MOTION_DDOT":0},{"OBJECT_NAME":"TELSTAR 14R","OBJECT_ID":"2011-021A","EPOCH":"2026-04-05T02:00:27.987264","MEAN_MOTION":1.00269093,"ECCENTRICITY":0.00024184,"INCLINATION":0.0163,"RA_OF_ASC_NODE":216.0603,"ARG_OF_PERICENTER":164.5611,"MEAN_ANOMALY":139.8791,"EPHEMERIS_TYPE":0,"CLASSIFICATION_TYPE":"U","NORAD_CAT_ID":37602,"ELEMENT_SET_NO":999,"REV_AT_EPOCH":5510,"BSTAR":0,"MEAN_MOTION_DOT":0,"MEAN_MOTION_DDOT":0},{"OBJECT_NAME":"NIMIQ 6","OBJECT_ID":"2012-026A","EPOCH":"2026-04-05T03:12:38.783808","MEAN_MOTION":1.00271745,"ECCENTRICITY":0.00026047,"INCLINATION":0.0464,"RA_OF_ASC_NODE":68.6184,"ARG_OF_PERICENTER":306.3534,"MEAN_ANOMALY":135.5211,"EPHEMERIS_TYPE":0,"CLASSIFICATION_TYPE":"U","NORAD_CAT_ID":38342,"ELEMENT_SET_NO":999,"REV_AT_EPOCH":4968,"BSTAR":0,"MEAN_MOTION_DOT":-1.73e-6,"MEAN_MOTION_DDOT":0},{"OBJECT_NAME":"ANIK G1","OBJECT_ID":"2013-014A","EPOCH":"2026-04-05T03:40:45.621984","MEAN_MOTION":1.0027229,"ECCENTRICITY":0.00024544,"INCLINATION":0.0439,"RA_OF_ASC_NODE":82.7692,"ARG_OF_PERICENTER":277.9647,"MEAN_ANOMALY":140.6076,"EPHEMERIS_TYPE":0,"CLASSIFICATION_TYPE":"U","NORAD_CAT_ID":39127,"ELEMENT_SET_NO":999,"REV_AT_EPOCH":4752,"BSTAR":0,"MEAN_MOTION_DOT":-7.3e-7,"MEAN_MOTION_DDOT":0},{"OBJECT_NAME":"TELSTAR 12V","OBJECT_ID":"2015-068A","EPOCH":"2026-04-05T05:49:40.500768","MEAN_MOTION":1.00272436,"ECCENTRICITY":0.00026475,"INCLINATION":0.0189,"RA_OF_ASC_NODE":225.6576,"ARG_OF_PERICENTER":148.3789,"MEAN_ANOMALY":251.9271,"EPHEMERIS_TYPE":0,"CLASSIFICATION_TYPE":"U","NORAD_CAT_ID":41036,"ELEMENT_SET_NO":999,"REV_AT_EPOCH":3789,"BSTAR":0,"MEAN_MOTION_DOT":-1.18e-6,"MEAN_MOTION_DDOT":0},{"OBJECT_NAME":"VIASAT-2","OBJECT_ID":"2017-029A","EPOCH":"2026-04-05T04:17:04.128864","MEAN_MOTION":1.00276038,"ECCENTRICITY":5.225e-5,"INCLINATION":0.0201,"RA_OF_ASC_NODE":258.31,"ARG_OF_PERICENTER":109.1909,"MEAN_ANOMALY":180.3437,"EPHEMERIS_TYPE":0,"CLASSIFICATION_TYPE":"U","NORAD_CAT_ID":42740,"ELEMENT_SET_NO":999,"REV_AT_EPOCH":3247,"BSTAR":0,"MEAN_MOTION_DOT":-2.64e-6,"MEAN_MOTION_DDOT":0},{"OBJECT_NAME":"LEO 1 (LEO VANTAGE 1)","OBJECT_ID":"2018-004C","EPOCH":"2026-04-05T05:33:33.875712","MEAN_MOTION":14.67469248,"ECCENTRICITY":0.03505548,"INCLINATION":99.2453,"RA_OF_ASC_NODE":4.0062,"ARG_OF_PERICENTER":303.4715,"MEAN_ANOMALY":53.343,"EPHEMERIS_TYPE":0,"CLASSIFICATION_TYPE":"U","NORAD_CAT_ID":43113,"ELEMENT_SET_NO":999,"REV_AT_EPOCH":42678,"BSTAR":0.00035464869,"MEAN_MOTION_DOT":5.07e-5,"MEAN_MOTION_DDOT":0},{"OBJECT_NAME":"TELSTAR 19V","OBJECT_ID":"2018-059A","EPOCH":"2026-04-05T02:00:27.987264","MEAN_MOTION":1.00270241,"ECCENTRICITY":0.00016544,"INCLINATION":0.0184,"RA_OF_ASC_NODE":182.5788,"ARG_OF_PERICENTER":255.2098,"MEAN_ANOMALY":82.7077,"EPHEMERIS_TYPE":0,"CLASSIFICATION_TYPE":"U","NORAD_CAT_ID":43562,"ELEMENT_SET_NO":999,"REV_AT_EPOCH":2841,"BSTAR":0,"MEAN_MOTION_DOT":-2.79e-6,"MEAN_MOTION_DDOT":0},{"OBJECT_NAME":"TELSTAR 18V","OBJECT_ID":"2018-069A","EPOCH":"2026-04-05T06:33:21.311712","MEAN_MOTION":1.00270358,"ECCENTRICITY":0.00023642,"INCLINATION":0.0129,"RA_OF_ASC_NODE":249.4658,"ARG_OF_PERICENTER":125.5815,"MEAN_ANOMALY":54.8551,"EPHEMERIS_TYPE":0,"CLASSIFICATION_TYPE":"U","NORAD_CAT_ID":43611,"ELEMENT_SET_NO":999,"REV_AT_EPOCH":2790,"BSTAR":0,"MEAN_MOTION_DOT":-2.93e-6,"MEAN_MOTION_DDOT":0}]
